QIANFAN-57              
1 62787U 25016C   25205.87964262  .00000143  00000+0  20302-3 0  9999
2 62787  88.9861 117.7149 0016989  40.6130 319.6285 13.50959902 28185
QIANFAN-58              
1 62788U 25016D   25205.85089747  .00000148  00000+0  21028-3 0  9995
2 62788  88.9831 117.5933 0015707  36.3510 323.8704 13.50953315 28223
QIANFAN-59              
1 62789U 25016E   25205.86332243  .00000157  00000+0  22430-3 0  9997
2 62789  88.9855 117.6292 0016682  38.8923 321.3424 13.50957761 28228
QIANFAN-60              
1 62790U 25016F   25205.85492898  .00000145  00000+0  20625-3 0  9992
2 62790  88.9836 117.6363 0017101  36.7171 323.5148 13.50966021 28201
QIANFAN-61              
1 62791U 25016G   25205.86743575  .00000149  00000+0  21134-3 0  9995
2 62791  88.9904 117.6970 0016506  35.7624 324.4629 13.50955666 28221
QIANFAN-62              
1 62792U 25016H   25205.87136785  .00000149  00000+0  21232-3 0  9995
2 62792  88.9850 117.6413 0017914  35.6094 324.6249 13.50954549 28216
QIANFAN-63              
1 62793U 25016J   25206.17996904  .00000085  00000+0  11293-3 0  9992
2 62793  88.9856 117.5489 0017788  38.9162 321.3266 13.50951742 28299
QIANFAN-64              
1 62794U 25016K   25205.87547613  .00000131  00000+0  18351-3 0  9992
2 62794  88.9843 117.5790 0015517  34.7962 325.4200 13.50960259 28242
